{
  "type": "FeatureCollection",
  "features": [
    {
      "type": "Feature",
      "properties": {
        "norad_id": 57400,
        "name": "TIANMU-1 08",
        "group": "weather",
        "lat": -10.637041559259444,
        "lon": -141.15915831167922,
        "alt_km": 488.23969049623065,
        "timestamp": "2025-12-16T15:45:50.634271+00:00",
        "meta_object_name": "TIANMU-1 08",
        "meta_object_id": "2023-101B",
        "meta_epoch": "2025-12-15T23:13:02.579808",
        "meta_mean_motion": 15.2810356,
        "meta_eccentricity": 0.0007454,
        "meta_inclination": 97.2869,
        "meta_ra_of_asc_node": 39.5437,
        "meta_arg_of_pericenter": 74.9703,
        "meta_mean_anomaly": 285.2362,
        "meta_ephemeris_type": 0,
        "meta_classification_type": "U",
        "meta_norad_cat_id": 57400,
        "meta_element_set_no": 999,
        "meta_rev_at_epoch": 13364,
        "meta_bstar": 0.00020560432,
        "meta_mean_motion_dot": 5.565e-05,
        "meta_mean_motion_ddot": 0,
        "tle_line1": "1 57400U 23101B   25349.96739097  .00005565  00000+0  20560-3 0  9992",
        "tle_line2": "2 57400  97.2869  39.5437 0007454  74.9703 285.2362 15.28103560133646"
      },
      "geometry": {
        "type": "Point",
        "coordinates": [
          -141.15915831167922,
          -10.637041559259444
        ]
      }
    },
    {
      "type": "Feature",
      "properties": {
        "norad_id": 57401,
        "name": "TIANMU-1 09",
        "group": "weather",
        "lat": -80.31240019265458,
        "lon": 171.21517893686888,
        "alt_km": 493.250767092979,
        "timestamp": "2025-12-16T15:45:50.634281+00:00",
        "meta_object_name": "TIANMU-1 09",
        "meta_object_id": "2023-101C",
        "meta_epoch": "2025-12-15T22:53:55.282848",
        "meta_mean_motion": 15.28134833,
        "meta_eccentricity": 0.00067071,
        "meta_inclination": 97.2825,
        "meta_ra_of_asc_node": 39.0424,
        "meta_arg_of_pericenter": 75.1717,
        "meta_mean_anomaly": 285.0266,
        "meta_ephemeris_type": 0,
        "meta_classification_type": "U",
        "meta_norad_cat_id": 57401,
        "meta_element_set_no": 999,
        "meta_rev_at_epoch": 13364,
        "meta_bstar": 0.00021764868,
        "meta_mean_motion_dot": 5.9e-05,
        "meta_mean_motion_ddot": 0,
        "tle_line1": "1 57401U 23101C   25349.95411207  .00005900  00000+0  21765-3 0  9993",
        "tle_line2": "2 57401  97.2825  39.0424 0006707  75.1717 285.0266 15.28134833133646"
      },
      "geometry": {
        "type": "Point",
        "coordinates": [
          171.21517893686888,
          -80.31240019265458
        ]
      }
    },
    {
      "type": "Feature",
      "properties": {
        "norad_id": 57402,
        "name": "TIANMU-1 10",
        "group": "weather",
        "lat": 73.6967224638921,
        "lon": 14.624650340042455,
        "alt_km": 468.58204290373214,
        "timestamp": "2025-12-16T15:45:50.634292+00:00",
        "meta_object_name": "TIANMU-1 10",
        "meta_object_id": "2023-101D",
        "meta_epoch": "2025-12-15T22:08:55.212864",
        "meta_mean_motion": 15.28125262,
        "meta_eccentricity": 0.00084441,
        "meta_inclination": 97.2906,
        "meta_ra_of_asc_node": 39.8651,
        "meta_arg_of_pericenter": 74.2447,
        "meta_mean_anomaly": 285.9724,
        "meta_ephemeris_type": 0,
        "meta_classification_type": "U",
        "meta_norad_cat_id": 57402,
        "meta_element_set_no": 999,
        "meta_rev_at_epoch": 13363,
        "meta_bstar": 0.00020595743,
        "meta_mean_motion_dot": 5.579e-05,
        "meta_mean_motion_ddot": 0,
        "tle_line1": "1 57402U 23101D   25349.92286126  .00005579  00000+0  20596-3 0  9994",
        "tle_line2": "2 57402  97.2906  39.8651 0008444  74.2447 285.9724 15.28125262133630"
      },
      "geometry": {
        "type": "Point",
        "coordinates": [
          14.624650340042455,
          73.6967224638921
        ]
      }
    },
    {
      "type": "Feature",
      "properties": {
        "norad_id": 57490,
        "name": "FENGYUN 3F",
        "group": "weather",
        "lat": -69.82800732839293,
        "lon": -145.76997568404482,
        "alt_km": 833.3727410487172,
        "timestamp": "2025-12-16T15:45:50.634305+00:00",
        "meta_object_name": "FENGYUN 3F",
        "meta_object_id": "2023-111A",
        "meta_epoch": "2025-12-15T23:21:40.597920",
        "meta_mean_motion": 14.19894414,
        "meta_eccentricity": 6.906e-05,
        "meta_inclination": 98.708,
        "meta_ra_of_asc_node": 58.2146,
        "meta_arg_of_pericenter": 107.588,
        "meta_mean_anomaly": 252.5372,
        "meta_ephemeris_type": 0,
        "meta_classification_type": "U",
        "meta_norad_cat_id": 57490,
        "meta_element_set_no": 999,
        "meta_rev_at_epoch": 12286,
        "meta_bstar": 5.3724493e-05,
        "meta_mean_motion_dot": 7e-07,
        "meta_mean_motion_ddot": 0,
        "tle_line1": "1 57490U 23111A   25349.97338655  .00000070  00000+0  53724-4 0  9993",
        "tle_line2": "2 57490  98.7080  58.2146 0000690 107.5880 252.5372 14.19894414122869"
      },
      "geometry": {
        "type": "Point",
        "coordinates": [
          -145.76997568404482,
          -69.82800732839293
        ]
      }
    },
    {
      "type": "Feature",
      "properties": {
        "norad_id": 58584,
        "name": "ARKTIKA-M 2",
        "group": "weather",
        "lat": 55.77872498289412,
        "lon": -53.509826953181644,
        "alt_km": 31266.01422472572,
        "timestamp": "2025-12-16T15:45:50.634318+00:00",
        "meta_object_name": "ARKTIKA-M 2",
        "meta_object_id": "2023-198A",
        "meta_epoch": "2025-12-15T07:41:54.278304",
        "meta_mean_motion": 2.00603484,
        "meta_eccentricity": 0.68650912,
        "meta_inclination": 63.2249,
        "meta_ra_of_asc_node": 174.6089,
        "meta_arg_of_pericenter": 268.096,
        "meta_mean_anomaly": 18.8351,
        "meta_ephemeris_type": 0,
        "meta_classification_type": "U",
        "meta_norad_cat_id": 58584,
        "meta_element_set_no": 999,
        "meta_rev_at_epoch": 1463,
        "meta_bstar": 0,
        "meta_mean_motion_dot": 2.02e-06,
        "meta_mean_motion_ddot": 0,
        "tle_line1": "1 58584U 23198A   25349.32076711  .00000202  00000+0  00000+0 0  9995",
        "tle_line2": "2 58584  63.2249 174.6089 6865091 268.0960  18.8351  2.00603484 14636"
      },
      "geometry": {
        "type": "Point",
        "coordinates": [
          -53.509826953181644,
          55.77872498289412
        ]
      }
    },
    {
      "type": "Feature",
      "properties": {
        "norad_id": 58645,
        "name": "TIANMU-1 11",
        "group": "weather",
        "lat": -25.323956655326732,
        "lon": -173.29533152028552,
        "alt_km": 497.4722632711573,
        "timestamp": "2025-12-16T15:45:50.634332+00:00",
        "meta_object_name": "TIANMU-1 11",
        "meta_object_id": "2023-205A",
        "meta_epoch": "2025-12-16T00:41:19.256640",
        "meta_mean_motion": 15.2464174,
        "meta_eccentricity": 0.00077011,
        "meta_inclination": 97.3606,
        "meta_ra_of_asc_node": 9.5945,
        "meta_arg_of_pericenter": 296.7792,
        "meta_mean_anomaly": 63.2657,
        "meta_ephemeris_type": 0,
        "meta_classification_type": "U",
        "meta_norad_cat_id": 58645,
        "meta_element_set_no": 999,
        "meta_rev_at_epoch": 10959,
        "meta_bstar": 0.00019331526,
        "meta_mean_motion_dot": 4.704e-05,
        "meta_mean_motion_ddot": 0,
        "tle_line1": "1 58645U 23205A   25350.02869510  .00004704  00000+0  19332-3 0  9991",
        "tle_line2": "2 58645  97.3606   9.5945 0007701 296.7792  63.2657 15.24641740109597"
      },
      "geometry": {
        "type": "Point",
        "coordinates": [
          -173.29533152028552,
          -25.323956655326732
        ]
      }
    },
    {
      "type": "Feature",
      "properties": {
        "norad_id": 58646,
        "name": "TIANMU-1 12",
        "group": "weather",
        "lat": 55.373557074362374,
        "lon": -0.7715675772243888,
        "alt_km": 490.098174706779,
        "timestamp": "2025-12-16T15:45:50.634343+00:00",
        "meta_object_name": "TIANMU-1 12",
        "meta_object_id": "2023-205B",
        "meta_epoch": "2025-12-15T23:45:58.292064",
        "meta_mean_motion": 15.24525741,
        "meta_eccentricity": 0.00057916,
        "meta_inclination": 97.3593,
        "meta_ra_of_asc_node": 9.3612,
        "meta_arg_of_pericenter": 276.5298,
        "meta_mean_anomaly": 83.528,
        "meta_ephemeris_type": 0,
        "meta_classification_type": "U",
        "meta_norad_cat_id": 58646,
        "meta_element_set_no": 999,
        "meta_rev_at_epoch": 10957,
        "meta_bstar": 0.00020348665,
        "meta_mean_motion_dot": 4.937e-05,
        "meta_mean_motion_ddot": 0,
        "tle_line1": "1 58646U 23205B   25349.99025801  .00004937  00000+0  20349-3 0  9991",
        "tle_line2": "2 58646  97.3593   9.3612 0005791 276.5298  83.5280 15.24525741109573"
      },
      "geometry": {
        "type": "Point",
        "coordinates": [
          -0.7715675772243888,
          55.373557074362374
        ]
      }
    }
  ]
}